INTELSAT 23 (IS-23)     
1 38867U 12057A   26194.47923207 -.00000288  00000+0  00000+0 0  9990
2 38867   0.0143  19.2691 0000331 174.9440 216.6691  1.00273947 50218
FM-6                    
1 39360U 13058A   26194.47058735 -.00000019  00000+0  00000+0 0  9998
2 39360   0.0134  30.6812 0001310 146.9618 166.7577  1.00270111 46339
INTELSAT 30 (IS-30)     
1 40271U 14062A   26193.82918095 -.00000152  00000+0  00000+0 0  9997
2 40271   0.0165  46.9734 0001199 336.3929 110.8103  1.00273200  7057
DIRECTV 14              
1 40333U 14078B   26194.18487453 -.00000127  00000+0  00000+0 0  9994
2 40333   0.0147  48.5403 0000254 253.7402 316.0900  1.00270023 42308
DIRECTV 15              
1 40663U 15026A   26194.51503030 -.00000106  00000+0  00000+0 0  9998
2 40663   0.0179  71.5022 0000066 256.9146  45.5133  1.00272384 40721
SKY MEXICO-1            
1 40664U 15026B   26194.47411872 -.00000238  00000+0  00000+0 0  9992
2 40664   0.0184  23.6910 0002324 111.6737 247.8665  1.00270470 40714
INTELSAT 34 (IS-34)     
1 40874U 15039A   26194.10409780 -.00000287  00000+0  00000+0 0  9998
2 40874   0.0107   1.3438 0000492 353.9217 277.7081  1.00271511 39896
INTELSAT 31 (IS-31)     
1 41581U 16035A   26194.18574118 -.00000153  00000+0  00000+0 0  9999
2 41581   0.0160 289.2103 0001139 354.6494 339.0259  1.00271434 36947
INTELSAT 36 (IS-36)     
1 41747U 16053A   26194.50323884 -.00000028  00000+0  00000+0 0  9992
2 41747   0.0103  19.8867 0002500 320.6602 200.4802  1.00270075 36225
INTELSAT 32E (IS-32E)   
1 41945U 17007B   26194.12470718  .00000000  00000+0  00000+0 0  9998
2 41945   0.0250  44.8942 0000425 284.8742 322.9651  1.00269412 34481
INTELSAT 35E (IS-35E)   
1 42818U 17041A   26193.91256185 -.00000239  00000+0  00000+0 0  9997
2 42818   0.0167  45.3733 0001581  65.1012 114.3450  1.00269769 33075
INTELSAT 37E (IS-37E)   
1 42950U 17059A   26194.03377860 -.00000143  00000+0  00000+0 0  9995
2 42950   0.0156  71.5028 0002484  47.5543 166.0149  1.00270449 32327
AZERSPACE 2 (IS-38)     
1 43632U 18074A   26194.49864550  .00000000  00000+0  00000+0 0  9999
2 43632   0.0257  44.2154 0001228  77.9656  33.8263  1.00269797 28711
HORIZONS-3E             
1 43633U 18074B   26194.50392109 -.00000035  00000+0  00000+0 0  9997
2 43633   0.0496 224.9171 0000927  51.5280   5.3422  1.00269676 28604
AT&T T-16               
1 44333U 19034A   26194.51503030 -.00000119  00000+0  00000+0 0  9993
2 44333   0.0137  58.5667 0000629 259.4075  57.9662  1.00268521 25890
INTELSAT 39 (IS-39)     
1 44476U 19049B   26194.50202551  .00000000  00000+0  00000+0 0  9998
2 44476   0.0272  48.3641 0000931 279.4001 206.2973  1.00269592 25392
GALAXY 30 (G-30)        
1 46114U 20056C   26194.47058735  .00000033  00000+0  00000+0 0  9994
2 46114   0.0176  36.3156 0001952  78.2750 221.1584  1.00271249 21554
GALAXY 33 (G-33)        
1 54026U 22128A   26194.47614208  .00000075  00000+0  00000+0 0  9996
2 54026   0.0134  21.0488 0001757  99.1028 209.6088  1.00271555 14003
GALAXY 34 (G-34)        
1 54027U 22128B   26194.46415199  .00000000  00000+0  00000+0 0  9992
2 54027   0.0250  26.9480 0001292 107.3515 195.1368  1.00270023 14173
GALAXY 31 (G-31)        
1 54243U 22153A   26194.46579867  .00000010  00000+0  00000+0 0  9994
2 54243   0.0175  66.5786 0000948  53.0891 218.3447  1.00270686  7396
GALAXY 32 (G-32)        
1 54244U 22153B   26194.50947838 -.00000178  00000+0  00000+0 0  9993
2 54244   0.0121  29.6563 0001400  18.1075 336.0269  1.00269974 13408
GALAXY 35 (G-35)        
1 54741U 22170A   26194.47125869  .00000000  00000+0  00000+0 0  9995
2 54741   0.0252  64.0561 0001904  52.9233 250.9190  1.00268681 13150
GALAXY 36 (G-36)        
1 54742U 22170B   26194.47212536 -.00000189  00000+0  00000+0 0  9993
2 54742   0.0203 215.8463 0002391 244.3920 272.0747  1.00270898 13038
GALAXY 37 (G-37)        
1 57493U 23112A   26194.48760663  .00000044  00000+0  00000+0 0  9995
2 57493   0.0205  72.0614 0001739  45.1961 222.6371  1.00271178 10802
